GSAT0101 (PRN E11)      
1 37846U 11060A   21015.29588509 -.00000077  00000-0  00000+0 0  9995
2 37846  56.7559  35.4694 0003624 314.1284  45.8850  1.70475297 57516
GSAT0102 (PRN E12)      
1 37847U 11060B   21015.51130057 -.00000077  00000-0  00000+0 0  9992
2 37847  56.7567  35.4629 0005491 301.4638 236.9310  1.70475439 57512
GSAT0103 (PRN E19)      
1 38857U 12055A   21016.51061985  .00000021  00000-0  00000+0 0  9991
2 38857  55.0165 155.9174 0001893 238.7867 121.1411  1.70473693 51444
GSAT0104 (PRN E20)      
1 38858U 12055B   21015.85845203  .00000017  00000-0  00000+0 0  9996
2 38858  55.0170 155.9350 0000690 214.0372 145.9012  1.70473601 51382
GSAT0201 (PRN E18)      
1 40128U 14050A   21016.30709764 -.00000115  00000-0  00000+0 0  9998
2 40128  50.5268 352.8855 1652355 106.3182 272.4591  1.85519321 43560
GSAT0202 (PRN E14)      
1 40129U 14050B   21015.49204186 -.00000115  00000-0  00000-0 0  9997
2 40129  50.5605 351.9621 1649893 107.1049 271.6000  1.85519941 43778
GSAT0203 (PRN E26)      
1 40544U 15017A   21015.07704811 -.00000077  00000-0  00000-0 0  9993
2 40544  56.5495  35.5799 0005515 260.7394  99.2421  1.70474996 35460
GSAT0204 (PRN E22)      
1 40545U 15017B   21014.27140855 -.00000076  00000-0  00000-0 0  9996
2 40545  56.5554  35.6188 0003421 241.2657 118.7467  1.70475141 36113
GSAT0205 (PRN E24)      
1 40889U 15045A   21015.10004640 -.00000012  00000-0  00000-0 0  9992
2 40889  55.9883 276.2712 0005766  10.5325 349.5549  1.70474630 33272
GSAT0206 (PRN E30)      
1 40890U 15045B   21012.97322195 -.00000005  00000-0  00000-0 0  9996
2 40890  55.9897 276.3264 0004055   0.4010 359.6712  1.70474588 33266
GSAT0209 (PRN E09)      
1 41174U 15079A   21015.49305817  .00000015  00000-0  00000-0 0  9991
2 41174  55.0315 155.6450 0002687 328.4933  31.4316  1.70473596 31216
GSAT0208 (PRN E08)      
1 41175U 15079B   21015.71277591  .00000016  00000-0  00000+0 0  9994
2 41175  55.0294 155.6380 0001953 336.6378  23.2955  1.70473615 31630
GSAT0211 (PRN E02)      
1 41549U 16030A   21014.66109131 -.00000010  00000-0  00000-0 0  9990
2 41549  56.1313 276.1582 0004669 337.1936  22.8613  1.70474397 28927
GSAT0210 (PRN E01)      
1 41550U 16030B   21016.12712850 -.00000015  00000-0  00000+0 0  9997
2 41550  56.1297 276.1196 0003319 316.2766  43.7715  1.70474496 28926
GSAT0207 (PRN E07)      
1 41859U 16069A   21016.37238920  .00000019  00000-0  00000+0 0  9992
2 41859  54.6884 155.9302 0002344 304.6810  55.2423  1.70473552 25916
GSAT0212 (PRN E03)      
1 41860U 16069B   21015.63924494  .00000016  00000-0  00000+0 0  9997
2 41860  54.6875 155.9492 0001952 356.7270   3.2133  1.70473564 25925
GSAT0213 (PRN E04)      
1 41861U 16069C   21015.41835874  .00000015  00000-0  00000-0 0  9997
2 41861  54.6843 155.9596 0001562 255.0955 104.8277  1.70473576 25924
GSAT0214 (PRN E05)      
1 41862U 16069D   21014.97883978  .00000013  00000-0  00000+0 0  9993
2 41862  54.6880 155.9670 0000942 263.6535  96.2745  1.70473655 25909
GSAT0215 (PRN E21)      
1 43055U 17079A   21015.46939121 -.00000012  00000-0  00000-0 0  9999
2 43055  56.1056 275.9764 0002667 319.0422  41.0133  1.70473651 19257
GSAT0216 (PRN E25)      
1 43056U 17079B   21015.17541815 -.00000011  00000-0  00000-0 0  9996
2 43056  56.1058 275.9840 0004083 302.8843  57.1522  1.70473723 19267
GSAT0217 (PRN E27)      
1 43057U 17079C   21015.39551133 -.00000012  00000-0  00000-0 0  9996
2 43057  56.1045 275.9785 0004233 315.8468  44.1951  1.70473696 19256
GSAT0218 (PRN E31)      
1 43058U 17079D   21016.20210071 -.00000015  00000-0  00000+0 0  9993
2 43058  56.1036 275.9536 0004292 296.8492  63.1814  1.70473722 19261
GSAT0221 (PRN E15)      
1 43564U 18060A   21014.34091137 -.00000075  00000-0  00000-0 0  9996
2 43564  56.9349  35.2823 0006201 273.2747  86.7005  1.70475980 15412
GSAT0222 (PRN E33)      
1 43565U 18060B   21015.14733230 -.00000077  00000-0  00000-0 0  9995
2 43565  56.9376  35.2600 0005884 279.3753  80.6015  1.70476071 15478
GSAT0219 (PRN E36)      
1 43566U 18060C   21015.95434543 -.00000077  00000-0  00000+0 0  9999
2 43566  56.9387  35.2397 0005601 275.6438  84.3333  1.70475910 15464
GSAT0220 (PRN E13)      
1 43567U 18060D   21015.00107549 -.00000077  00000-0  00000-0 0  9990
2 43567  56.9377  35.2657 0005608 275.9125  84.0674  1.70475968 15431
